{"type": "FeatureCollection", "features": [{"type": "Feature", "properties": {"departamento": "ATLANTIDA"}, "geometry": {"type": "Point", "coordinates": [-87.2, 15.7]}}, {"type": "Feature", "properties": {"departamento": "COLON"}, "geometry": {"type": "Point", "coordinates": [-85.6, 15.6]}}, {"type": "Feature", "properties": {"departamento": "COMAYAGUA"}, "geometry": {"type": "Point", "coordinates": [-87.6, 14.4]}}, {"type": "Feature", "properties": {"departamento": "COPAN"}, "geometry": {"type": "Point", "coordinates": [-89.1, 14.8]}}, {"type": "Feature", "properties": {"departamento": "CORTES"}, "geometry": {"type": "Point", "coordinates": [-88.0, 15.4]}}, {"type": "Feature", "properties": {"departamento": "CHOLUTECA"}, "geometry": {"type": "Point", "coordinates": [-87.1, 13.3]}}, {"type": "Feature", "properties": {"departamento": "EL PARAISO"}, "geometry": {"type": "Point", "coordinates": [-86.5, 14.0]}}, {"type": "Feature", "properties": {"departamento": "FRANCISCO MORAZAN"}, "geometry": {"type": "Point", "coordinates": [-87.2, 14.1]}}, {"type": "Feature", "properties": {"departamento": "GRACIAS A DIOS"}, "geometry": {"type": "Point", "coordinates": [-84.5, 15.0]}}, {"type": "Feature", "properties": {"departamento": "INTIBUCA"}, "geometry": {"type": "Point", "coordinates": [-88.2, 14.3]}}, {"type": "Feature", "properties": {"departamento": "ISLAS DE LA BAHIA"}, "geometry": {"type": "Point", "coordinates": [-86.6, 16.3]}}, {"type": "Feature", "properties": {"departamento": "LA PAZ"}, "geometry": {"type": "Point", "coordinates": [-87.7, 14.2]}}, {"type": "Feature", "properties": {"departamento": "LEMPIRA"}, "geometry": {"type": "Point", "coordinates": [-88.6, 14.6]}}, {"type": "Feature", "properties": {"departamento": "OCOTEPEQUE"}, "geometry": {"type": "Point", "coordinates": [-89.2, 14.5]}}, {"type": "Feature", "properties": {"departamento": "OLANCHO"}, "geometry": {"type": "Point", "coordinates": [-85.7, 14.8]}}, {"type": "Feature", "properties": {"departamento": "SANTA BARBARA"}, "geometry": {"type": "Point", "coordinates": [-88.3, 15.0]}}, {"type": "Feature", "properties": {"departamento": "VALLE"}, "geometry": {"type": "Point", "coordinates": [-87.6, 13.5]}}, {"type": "Feature", "properties": {"departamento": "YORO"}, "geometry": {"type": "Point", "coordinates": [-87.6, 15.3]}}]}